[{"OBJECT_NAME":"GCOM-W1 (SHIZUKU)","OBJECT_ID":"2012-025A","EPOCH":"2026-03-09T21:00:27.789696","MEAN_MOTION":14.57098932,"ECCENTRICITY":0.00014794,"INCLINATION":98.2054,"RA_OF_ASC_NODE":10.9333,"ARG_OF_PERICENTER":74.2866,"MEAN_ANOMALY":352.8435,"EPHEMERIS_TYPE":0,"CLASSIFICATION_TYPE":"U","NORAD_CAT_ID":38337,"ELEMENT_SET_NO":999,"REV_AT_EPOCH":73457,"BSTAR":0.00019640051,"MEAN_MOTION_DOT":8.39e-6,"MEAN_MOTION_DDOT":0},{"OBJECT_NAME":"COSMOS 2251 DEB","OBJECT_ID":"1993-036BS","EPOCH":"2026-03-09T10:30:46.420128","MEAN_MOTION":14.71514486,"ECCENTRICITY":0.00796519,"INCLINATION":73.9827,"RA_OF_ASC_NODE":218.9735,"ARG_OF_PERICENTER":166.5003,"MEAN_ANOMALY":254.2029,"EPHEMERIS_TYPE":0,"CLASSIFICATION_TYPE":"U","NORAD_CAT_ID":33825,"ELEMENT_SET_NO":999,"REV_AT_EPOCH":90154,"BSTAR":0.0019950965,"MEAN_MOTION_DOT":0.00013008,"MEAN_MOTION_DDOT":0}]
